[{"OBJECT_NAME":"TIANMU-1 08","OBJECT_ID":"2023-101B","EPOCH":"2026-03-07T00:03:25.475616","MEAN_MOTION":15.29204229,"ECCENTRICITY":0.00063808,"INCLINATION":97.2717,"RA_OF_ASC_NODE":118.7901,"ARG_OF_PERICENTER":134.2174,"MEAN_ANOMALY":225.9592,"EPHEMERIS_TYPE":0,"CLASSIFICATION_TYPE":"U","NORAD_CAT_ID":57400,"ELEMENT_SET_NO":999,"REV_AT_EPOCH":14602,"BSTAR":1.4774513e-5,"MEAN_MOTION_DOT":3.46e-6,"MEAN_MOTION_DDOT":0},{"OBJECT_NAME":"STARLINK-31913","OBJECT_ID":"2024-084P","EPOCH":"2026-03-09T06:51:18.903744","MEAN_MOTION":15.2758233,"ECCENTRICITY":0.00019261,"INCLINATION":43.0063,"RA_OF_ASC_NODE":40.4201,"ARG_OF_PERICENTER":269.9979,"MEAN_ANOMALY":90.0652,"EPHEMERIS_TYPE":0,"CLASSIFICATION_TYPE":"U","NORAD_CAT_ID":59667,"ELEMENT_SET_NO":999,"REV_AT_EPOCH":10435,"BSTAR":1.5055039e-5,"MEAN_MOTION_DOT":1.52e-6,"MEAN_MOTION_DDOT":0}]
